{
    "links": {
        "self": "http://www.neowsapp.com/rest/v1/neo/3752770?api_key=iIulBulltgU6a56xZRHN4H3l9WmuAYTsLGpBGhQ2"
    },
    "id": "3752770",
    "neo_reference_id": "3752770",
    "name": "(2016 JR5)",
    "designation": "2016 JR5",
    "nasa_jpl_url": "http://ssd.jpl.nasa.gov/sbdb.cgi?sstr=3752770",
    "absolute_magnitude_h": 25.0,
    "estimated_diameter": {
        "kilometers": {
            "estimated_diameter_min": 0.02658,
            "estimated_diameter_max": 0.0594346868
        },
        "meters": {
            "estimated_diameter_min": 26.58,
            "estimated_diameter_max": 59.4346868419
        },
        "miles": {
            "estimated_diameter_min": 0.0165160412,
            "estimated_diameter_max": 0.0369309908
        },
        "feet": {
            "estimated_diameter_min": 87.2047272,
            "estimated_diameter_max": 194.9956979785
        }
    },
    "is_potentially_hazardous_asteroid": false,
    "close_approach_data": [
        {
            "close_approach_date": "2012-12-10",
            "close_approach_date_full": "2012-Dec-10 13:47",
            "epoch_date_close_approach": 1355147220000,
            "relative_velocity": {
                "kilometers_per_second": "11.6851707787",
                "kilometers_per_hour": "42066.6148034478",
                "miles_per_hour": "26138.5585149534"
            },
            "miss_distance": {
                "astronomical": "0.1103859117",
                "lunar": "42.9401196513",
                "kilometers": "16513497.268328079",
                "miles": "10261011.3931183302"
            },
            "orbiting_body": "Earth"
        },
        {
            "close_approach_date": "2015-11-02",
            "close_approach_date_full": "2015-Nov-02 12:50",
            "epoch_date_close_approach": 1446468600000,
            "relative_velocity": {
                "kilometers_per_second": "6.8961761631",
                "kilometers_per_hour": "24826.2341873047",
                "miles_per_hour": "15426.0564593283"
            },
            "miss_distance": {
                "astronomical": "0.4539357218",
                "lunar": "176.5809957802",
                "kilometers": "67907817.098192566",
                "miles": "42195960.8921107708"
            },
            "orbiting_body": "Earth"
        },
        {
            "close_approach_date": "2016-04-20",
            "close_approach_date_full": "2016-Apr-20 20:58",
            "epoch_date_close_approach": 1461185880000,
            "relative_velocity": {
                "kilometers_per_second": "9.5184107893",
                "kilometers_per_hour": "34266.2788413479",
                "miles_per_hour": "21291.7330945031"
            },
            "miss_distance": {
                "astronomical": "0.0404881913",
                "lunar": "15.7499064157",
                "kilometers": "6056947.178632531",
                "miles": "3763612.4557736878"
            },
            "orbiting_body": "Earth"
        },
        {
            "close_approach_date": "2016-07-10",
            "close_approach_date_full": "2016-Jul-10 12:06",
            "epoch_date_close_approach": 1468152360000,
            "relative_velocity": {
                "kilometers_per_second": "11.0607207332",
                "kilometers_per_hour": "39818.5946396417",
                "miles_per_hour": "24741.7262081707"
            },
            "miss_distance": {
                "astronomical": "0.0760915814",
                "lunar": "29.5996251646",
                "kilometers": "11383138.502371618",
                "miles": "7073154.2788516084"
            },
            "orbiting_body": "Mars"
        },
        {
            "close_approach_date": "2018-12-05",
            "close_approach_date_full": "2018-Dec-05 16:05",
            "epoch_date_close_approach": 1544025900000,
            "relative_velocity": {
                "kilometers_per_second": "11.4213848824",
                "kilometers_per_hour": "41116.9855764989",
                "miles_per_hour": "25548.4958433529"
            },
            "miss_distance": {
                "astronomical": "0.0635182217",
                "lunar": "24.7085882413",
                "kilometers": "9502190.672507779",
                "miles": "5904387.4938101902"
            },
            "orbiting_body": "Mars"
        }
    ],
    "orbital_data": {
        "orbit_id": "4",
        "orbit_determination_date": "2017-04-06 08:26:10",
        "first_observation_date": "2016-05-03",
        "last_observation_date": "2016-05-09",
        "data_arc_in_days": 6,
        "observations_used": 34,
        "orbit_uncertainty": "8",
        "minimum_orbit_intersection": ".020676",
        "jupiter_tisserand_invariant": "4.835",
        "epoch_osculation": "2457513.5",
        "eccentricity": ".350734955597432",
        "semi_major_axis": "1.339080956734534",
        "inclination": "2.842390569257444",
        "ascending_node_longitude": "231.4871150045233",
        "orbital_period": "565.9898953202523",
        "perihelion_distance": ".8694184568328808",
        "perihelion_argument": "274.0890123120557",
        "aphelion_distance": "1.808743456636188",
        "perihelion_time": "2457449.314925868203",
        "mean_anomaly": "40.82515761941751",
        "mean_motion": ".6360537581617112",
        "equinox": "J2000",
        "orbit_class": {
            "orbit_class_type": "APO",
            "orbit_class_description": "Near-Earth asteroid orbits which cross the Earth’s orbit similar to that of 1862 Apollo",
            "orbit_class_range": "a (semi-major axis) > 1.0 AU; q (perihelion) < 1.017 AU"
        }
    },
    "is_sentry_object": false
}